[{"OBJECT_NAME":"GEESAT-2 04","OBJECT_ID":"2024-023D","EPOCH":"2026-03-09T22:58:49.443744","MEAN_MOTION":14.96681304,"ECCENTRICITY":0.00064656,"INCLINATION":49.992,"RA_OF_ASC_NODE":72.838,"ARG_OF_PERICENTER":6.7244,"MEAN_ANOMALY":353.3785,"EPHEMERIS_TYPE":0,"CLASSIFICATION_TYPE":"U","NORAD_CAT_ID":58908,"ELEMENT_SET_NO":999,"REV_AT_EPOCH":11446,"BSTAR":0.0002767609,"MEAN_MOTION_DOT":2.943e-5,"MEAN_MOTION_DDOT":0},{"OBJECT_NAME":"COSMOS 2581","OBJECT_ID":"2025-026A","EPOCH":"2026-03-09T19:42:28.866816","MEAN_MOTION":14.94736104,"ECCENTRICITY":0.0010574,"INCLINATION":81.9986,"RA_OF_ASC_NODE":175.8565,"ARG_OF_PERICENTER":32.7244,"MEAN_ANOMALY":327.4629,"EPHEMERIS_TYPE":0,"CLASSIFICATION_TYPE":"U","NORAD_CAT_ID":62902,"ELEMENT_SET_NO":999,"REV_AT_EPOCH":5937,"BSTAR":0.00021137,"MEAN_MOTION_DOT":2.32e-5,"MEAN_MOTION_DDOT":0}]
